[{"OBJECT_NAME":"STARLINK-30920","OBJECT_ID":"2023-178E","EPOCH":"2026-03-09T23:34:38.009568","MEAN_MOTION":15.30188638,"ECCENTRICITY":0.0001158,"INCLINATION":53.1614,"RA_OF_ASC_NODE":347.1445,"ARG_OF_PERICENTER":64.2129,"MEAN_ANOMALY":295.8992,"EPHEMERIS_TYPE":0,"CLASSIFICATION_TYPE":"U","NORAD_CAT_ID":58378,"ELEMENT_SET_NO":999,"REV_AT_EPOCH":13011,"BSTAR":7.2183908e-5,"MEAN_MOTION_DOT":1.779e-5,"MEAN_MOTION_DDOT":0},{"OBJECT_NAME":"GEOSCAN 5 (RS92S5)","OBJECT_ID":"2025-155R","EPOCH":"2026-03-09T22:01:07.273920","MEAN_MOTION":15.30265233,"ECCENTRICITY":0.00070849,"INCLINATION":97.4462,"RA_OF_ASC_NODE":37.7456,"ARG_OF_PERICENTER":154.5846,"MEAN_ANOMALY":205.5745,"EPHEMERIS_TYPE":0,"CLASSIFICATION_TYPE":"U","NORAD_CAT_ID":64891,"ELEMENT_SET_NO":999,"REV_AT_EPOCH":6562,"BSTAR":0.00068639307,"MEAN_MOTION_DOT":0.00020065,"MEAN_MOTION_DDOT":0}]
